[{"OBJECT_NAME":"STARLINK-3994","OBJECT_ID":"2022-052AM","EPOCH":"2026-03-09T19:54:45.215136","MEAN_MOTION":15.0884377,"ECCENTRICITY":0.00011833,"INCLINATION":53.2152,"RA_OF_ASC_NODE":268.4972,"ARG_OF_PERICENTER":85.3433,"MEAN_ANOMALY":274.7694,"EPHEMERIS_TYPE":0,"CLASSIFICATION_TYPE":"U","NORAD_CAT_ID":52633,"ELEMENT_SET_NO":999,"REV_AT_EPOCH":21102,"BSTAR":6.0296058e-5,"MEAN_MOTION_DOT":6.72e-6,"MEAN_MOTION_DDOT":0},{"OBJECT_NAME":"SL-8 DEB","OBJECT_ID":"1976-098E","EPOCH":"2026-03-09T08:07:12.416160","MEAN_MOTION":15.06605169,"ECCENTRICITY":0.00102283,"INCLINATION":74.028,"RA_OF_ASC_NODE":26.283,"ARG_OF_PERICENTER":218.296,"MEAN_ANOMALY":294.2383,"EPHEMERIS_TYPE":0,"CLASSIFICATION_TYPE":"U","NORAD_CAT_ID":18504,"ELEMENT_SET_NO":999,"REV_AT_EPOCH":18055,"BSTAR":0.0011587434,"MEAN_MOTION_DOT":0.00017191,"MEAN_MOTION_DDOT":0}]
